COSMOS 2361 [-]         
1 25590U 98076A   21078.41196074  .00000048  00000-0  35926-4 0  9992
2 25590  82.9380 182.5062 0032165  35.6258  39.3689 13.72992189114097
COSMOS 2378 [-]         
1 26818U 01023A   21078.10806660  .00000034  00000-0  20561-4 0  9991
2 26818  82.9312 201.5854 0032685 345.0116  15.0074 13.73951234991780
COSMOS 2389 [-]         
1 27436U 02026A   21077.68400440  .00000036  00000-0  22208-4 0  9992
2 27436  82.9520 147.2286 0045880 205.6742 269.5176 13.74954405943746
COSMOS 2398 [-]         
1 27818U 03023A   21078.04961902  .00000048  00000-0  36530-4 0  9996
2 27818  82.9455 107.0817 0029972 235.3165 124.5162 13.72188153890938
COSMOS 2407 [+]         
1 28380U 04028A   21078.12332636  .00000043  00000-0  28150-4 0  9996
2 28380  82.9602  53.4900 0038253 209.0686 150.8329 13.76088730836539
COSMOS 2414 [+]         
1 28521U 05002A   21078.47793648  .00000005  00000-0 -90418-5 0  9994
2 28521  82.9486  52.1812 0041440  32.2708 328.0980 13.87630149818459
COSMOS 2429 [-]         
1 32052U 07038A   21077.75362728  .00000050  00000-0  35762-4 0  9999
2 32052  82.9844 178.0535 0038528 184.4303 175.6518 13.74936699678288
COSMOS 2454 [-]         
1 35635U 09039A   21078.46972498  .00000014  00000-0 -98253-6 0  9999
2 35635  82.9571  39.3819 0019235 344.3975  15.6607 13.89659232591507
COSMOS 2463 [+]         
1 36519U 10017A   21078.17747998  .00000023  00000-0  86462-5 0  9999
2 36519  82.9603 217.1923 0037268  47.6222 312.8079 13.71453432545386
